H1 CPF 01  gfz 2022 06 24 12  6752 tandemx   
H2 1003001  6202 36605    2022 06 24 12 59 42 2022 06 29 00 00 42   120 1 1  0 0 0
H9
10 0 59757  69102.000000  0   -5831250.224   1379251.734   3389128.213
10 0 59757  69222.000000  0   -6167204.801   1655408.050   2576101.007
10 0 59757  69342.000000  0   -6390685.581   1907511.400   1717700.268
10 0 59757  69462.000000  0   -6498266.534   2129156.246    829045.835
10 0 59757  69582.000000  0   -6488677.593   2314436.079    -74208.370
10 0 59757  69702.000000  0   -6362817.342   2458086.286   -976158.917
10 0 59757  69822.000000  0   -6123721.945   2555614.403  -1860941.687
10 0 59757  69942.000000  0   -5776491.788   2603415.134  -2713019.224
10 0 59757  70062.000000  0   -5328175.792   2598866.450  -3517460.687
10 0 59757  70182.000000  0   -4787618.234   2540403.676  -4260206.115
10 0 59757  70302.000000  0   -4165273.546   2427571.182  -4928310.797
10 0 59757  70422.000000  0   -3472993.543   2261050.834  -5510164.976
10 0 59757  70542.000000  0   -2723794.291   2042667.481  -5995686.082
10 0 59757  70662.000000  0   -1931607.037   1775371.442  -6376483.669
10 0 59757  70782.000000  0   -1111016.077   1463197.935  -6645992.745
10 0 59757  70902.000000  0    -276992.493   1111205.200  -6799575.061
10 0 59757  71022.000000  0     555373.602    725392.749  -6834589.616
10 0 59757  71142.000000  0    1371138.594    312601.359  -6750434.623
10 0 59757  71262.000000  0    2155768.782   -119605.825  -6548557.326
10 0 59757  71382.000000  0    2895393.080   -563078.096  -6232431.149
10 0 59757  71502.000000  0    3577045.001  -1009226.413  -5807502.573
10 0 59757  71622.000000  0    4188887.997  -1449184.590  -5281106.098
10 0 59757  71742.000000  0    4720423.841  -1873981.672  -4662350.130
10 0 59757  71862.000000  0    5162678.796  -2274722.358  -3961970.312
10 0 59757  71982.000000  0    5508363.481  -2642770.978  -3192153.282
10 0 59757  72102.000000  0    5752003.577  -2969935.689  -2366331.776
10 0 59757  72222.000000  0    5890036.606  -3248648.610  -1498953.318
10 0 59757  72342.000000  0    5920872.251  -3472137.357   -605227.696
10 0 59757  72462.000000  0    5844914.433  -3634584.200    299143.429
10 0 59757  72582.000000  0    5664543.327  -3731268.050   1198248.536
10 0 59757  72702.000000  0    5384057.932  -3758686.181   2076255.522
10 0 59757  72822.000000  0    5009577.473  -3714649.487   2917700.198
10 0 59757  72942.000000  0    4548907.379  -3598351.299   3707765.731
10 0 59757  73062.000000  0    4011373.666  -3410407.184   4432548.970
10 0 59757  73182.000000  0    3407629.028  -3152866.631   5079309.089
10 0 59757  73302.000000  0    2749433.980  -2829194.002   5636691.785
10 0 59757  73422.000000  0    2049421.951  -2444220.491   6094925.734
10 0 59757  73542.000000  0    1320851.476  -2004069.380   6445988.974
10 0 59757  73662.000000  0     577351.661  -1516055.929   6683743.329
10 0 59757  73782.000000  0    -167334.414   -988563.279   6804035.748
10 0 59757  73902.000000  0    -899603.567   -430896.911   6804765.837
10 0 59757  74022.000000  0   -1606239.828    146879.528   6685919.819
10 0 59757  74142.000000  0   -2274652.040    734125.433   6449570.887
10 0 59757  74262.000000  0   -2893097.969   1319818.367   6099845.531
10 0 59757  74382.000000  0   -3450891.704   1892759.995   5642856.306
10 0 59757  74502.000000  0   -3938591.816   2441790.106   5086601.760
10 0 59757  74622.000000  0   -4348166.488   2956005.773   4440832.544
10 0 59757  74742.000000  0   -4673132.219   3424979.875   3716884.914
10 0 59757  74862.000000  0   -4908662.503   3838974.794   2927484.199
10 0 59757  74982.000000  0   -5051663.884   4189147.530   2086521.709
10 0 59757  75102.000000  0   -5100818.640   4467741.389   1208807.823
10 0 59757  75222.000000  0   -5056590.486   4668257.975    309804.528
10 0 59757  75342.000000  0   -4921194.254   4785603.912   -594654.409
10 0 59757  75462.000000  0   -4698530.883   4816211.546  -1488651.477
10 0 59757  75582.000000  0   -4394086.214   4758128.656  -2356475.609
10 0 59757  75702.000000  0   -4014799.107   4611073.604  -3182905.804
10 0 59757  75822.000000  0   -3568901.449   4376455.870  -3953482.711
10 0 59757  75942.000000  0   -3065735.252   4057362.685  -4654761.119
10 0 59757  76062.000000  0   -2515552.944   3658513.092  -5274539.424
10 0 59757  76182.000000  0   -1929306.524   3186182.559  -5802064.190
10 0 59757  76302.000000  0   -1318427.909   2648097.978  -6228208.050
10 0 59757  76422.000000  0    -694605.761   2053305.312  -6545616.418
10 0 59757  76542.000000  0     -69564.231   1412014.965  -6748822.432
10 0 59757  76662.000000  0     545152.585    735426.670  -6834331.173
10 0 59757  76782.000000  0    1138388.583     35537.324  -6800674.320
10 0 59757  76902.000000  0    1699574.140   -675067.864  -6648432.272
10 0 59757  77022.000000  0    2218909.339  -1383435.973  -6380223.938
10 0 59757  77142.000000  0    2687531.977  -2076476.285  -6000666.888
10 0 59757  77262.000000  0    3097667.644  -2741196.384  -5516306.928
10 0 59757  77382.000000  0    3442761.122  -3364944.408  -4935517.594
10 0 59757  77502.000000  0    3717584.636  -3935650.912  -4268364.584
10 0 59757  77622.000000  0    3918319.909  -4442063.434  -3526441.388
10 0 59757  77742.000000  0    4042615.300  -4873972.499  -2722677.679
10 0 59757  77862.000000  0    4089615.771  -5222424.225  -1871119.957
10 0 59757  77982.000000  0    4059961.777  -5479912.907   -986686.902
10 0 59757  78102.000000  0    3955758.355  -5640547.482    -84905.552
10 0 59757  78222.000000  0    3780513.657  -5700188.110    818367.230
10 0 59757  78342.000000  0    3539048.939  -5656548.962   1707231.306
10 0 59757  78462.000000  0    3237381.598  -5509262.985   2566033.368
10 0 59757  78582.000000  0    2882582.972  -5259907.147   3379650.359
10 0 59757  78702.000000  0    2482617.051  -4911989.457   4133762.071
10 0 59757  78822.000000  0    2046163.966  -4470896.865   4815107.472
10 0 59757  78942.000000  0    1582431.748  -3943805.697   5411719.409
10 0 59757  79062.000000  0    1100961.852  -3339557.391   5913133.986
10 0 59757  79182.000000  0     611431.262  -2668501.765   6310569.993
10 0 59757  79302.000000  0     123457.612  -1942313.555   6597075.764
10 0 59757  79422.000000  0    -353588.891  -1173785.712   6767643.944
10 0 59757  79542.000000  0    -810764.099   -376602.409   6819294.986
10 0 59757  79662.000000  0   -1239716.581    434905.801   6751126.127
10 0 59757  79782.000000  0   -1632839.735   1246019.328   6564325.882
10 0 59757  79902.000000  0   -1983406.465   2041895.652   6262154.496
10 0 59757  80022.000000  0   -2285685.079   2807840.438   5849890.706
10 0 59757  80142.000000  0   -2535033.855   3529579.827   5334744.824
10 0 59757  80262.000000  0   -2727973.845   4193529.217   4725739.587
10 0 59757  80382.000000  0   -2862238.518   4787054.603   4033557.998
10 0 59757  80502.000000  0   -2936798.040   5298720.388   3270359.728
10 0 59757  80622.000000  0   -2951857.642   5718517.805   2449568.210
10 0 59757  80742.000000  0   -2908830.232   6038067.976   1585632.840
10 0 59757  80862.000000  0   -2810283.642   6250795.427    693770.512
10 0 59757  80982.000000  0   -2659863.256   6352067.801   -210308.884
10 0 59757  81102.000000  0   -2462192.653   6339297.582  -1110687.828
10 0 59757  81222.000000  0   -2222754.337   6212002.569  -1991532.572
10 0 59757  81342.000000  0   -1947751.504   5971819.685  -2837381.721
10 0 59757  81462.000000  0   -1643957.151   5622476.675  -3633420.864
10 0 59757  81582.000000  0   -1318555.634   5169724.857  -4365743.140
10 0 59757  81702.000000  0    -978979.534   4621232.366  -5021589.705
10 0 59757  81822.000000  0    -632745.989   3986443.768  -5589565.700
10 0 59757  81942.000000  0    -287295.436   3276408.135  -6059830.668
10 0 59757  82062.000000  0      50163.743   2503578.375  -6424258.932
10 0 59757  82182.000000  0     372800.483   1681588.380  -6676567.510
10 0 59757  82302.000000  0     674294.242    825013.038  -6812414.536
10 0 59757  82422.000000  0     948954.854    -50887.442  -6829466.026
10 0 59757  82542.000000  0    1191826.523   -930434.519  -6727431.198
10 0 59757  82662.000000  0    1398774.497  -1797805.162  -6508065.205
10 0 59757  82782.000000  0    1566553.961  -2637308.281  -6175142.262
10 0 59757  82902.000000  0    1692861.041  -3433662.503  -5734399.288
10 0 59757  83022.000000  0    1776363.665  -4172273.517  -5193448.080
10 0 59757  83142.000000  0    1816712.315  -4839502.813  -4561653.331
10 0 59757  83262.000000  0    1814530.725  -5422922.470  -3849981.649
10 0 59757  83382.000000  0    1771385.906  -5911555.056  -3070821.676
10 0 59757  83502.000000  0    1689736.955  -6296091.029  -2237775.208
10 0 59757  83622.000000  0    1572864.911  -6569077.402  -1365422.398
10 0 59757  83742.000000  0    1424784.495  -6725073.262   -469066.395
10 0 59757  83862.000000  0    1250139.157  -6760768.668    435540.113
10 0 59757  83982.000000  0    1054082.981  -6675059.636   1332478.350
10 0 59757  84102.000000  0     842150.551  -6469081.387   2205952.548
10 0 59757  84222.000000  0     620120.461  -6146194.112   3040578.416
10 0 59757  84342.000000  0     393873.270  -5711923.091   3821661.875
10 0 59757  84462.000000  0     169249.030  -5173856.762   4535462.124
10 0 59757  84582.000000  0     -48091.466  -4541505.393   5169435.987
10 0 59757  84702.000000  0    -252798.949  -3826122.779   5712457.919
10 0 59757  84822.000000  0    -439957.731  -3040496.130   6155012.915
10 0 59757  84942.000000  0    -605195.857  -2198708.205   6489357.109
10 0 59757  85062.000000  0    -744780.940  -1315880.527   6709645.601
10 0 59757  85182.000000  0    -855699.857   -407900.035   6812029.851
10 0 59757  85302.000000  0    -935721.522    508868.123   6794721.749
10 0 59757  85422.000000  0    -983440.875   1417875.619   6658022.804
10 0 59757  85542.000000  0    -998303.111   2302689.115   6404319.020
99
